ONEWEB-0707             
1 61612U 24188U   24323.91667824 -.00970301  00000+0 -18352+0 0  9995
2 61612  86.6984 157.8656 0004314 125.0983 215.0414 14.67342062  3383
ONEWEB-0708             
1 61613U 24188V   24323.91667824 -.00978172  00000+0 -18219+0 0  9992
2 61613  86.6912 157.8414 0004309 108.0431 276.4712 14.68043086  3310
